{
    "links": {
        "self": "http://www.neowsapp.com/rest/v1/neo/3879319?api_key=iIulBulltgU6a56xZRHN4H3l9WmuAYTsLGpBGhQ2"
    },
    "id": "3879319",
    "neo_reference_id": "3879319",
    "name": "(2019 UW3)",
    "designation": "2019 UW3",
    "nasa_jpl_url": "http://ssd.jpl.nasa.gov/sbdb.cgi?sstr=3879319",
    "absolute_magnitude_h": 24.4,
    "estimated_diameter": {
        "kilometers": {
            "estimated_diameter_min": 0.0350392641,
            "estimated_diameter_max": 0.0783501764
        },
        "meters": {
            "estimated_diameter_min": 35.0392641108,
            "estimated_diameter_max": 78.3501764334
        },
        "miles": {
            "estimated_diameter_min": 0.0217723826,
            "estimated_diameter_max": 0.0486845275
        },
        "feet": {
            "estimated_diameter_min": 114.9582192654,
            "estimated_diameter_max": 257.0543928497
        }
    },
    "is_potentially_hazardous_asteroid": false,
    "close_approach_data": [
        {
            "close_approach_date": "2019-10-12",
            "close_approach_date_full": "2019-Oct-12 14:13",
            "epoch_date_close_approach": 1570889580000,
            "relative_velocity": {
                "kilometers_per_second": "11.1094074629",
                "kilometers_per_hour": "39993.8668663298",
                "miles_per_hour": "24850.6335536926"
            },
            "miss_distance": {
                "astronomical": "0.1681025221",
                "lunar": "65.3918810969",
                "kilometers": "25147779.247787927",
                "miles": "15626105.4324383126"
            },
            "orbiting_body": "Earth"
        }
    ],
    "orbital_data": {
        "orbit_id": "1",
        "orbit_determination_date": "2019-10-23 09:42:09",
        "first_observation_date": "2019-10-19",
        "last_observation_date": "2019-10-23",
        "data_arc_in_days": 4,
        "observations_used": 14,
        "orbit_uncertainty": "9",
        "minimum_orbit_intersection": ".163537",
        "jupiter_tisserand_invariant": "4.924",
        "epoch_osculation": "2458777.5",
        "eccentricity": ".1070190231365667",
        "semi_major_axis": "1.300813982050496",
        "inclination": "21.68893856525369",
        "ascending_node_longitude": "18.80244817396628",
        "orbital_period": "541.9025834126559",
        "perihelion_distance": "1.161602140409065",
        "perihelion_argument": "357.1720022291422",
        "aphelion_distance": "1.440025823691928",
        "perihelion_time": "2458763.413537092745",
        "mean_anomaly": "9.358004190856873",
        "mean_motion": ".6643260449745115",
        "equinox": "J2000",
        "orbit_class": {
            "orbit_class_type": "AMO",
            "orbit_class_description": "Near-Earth asteroid orbits similar to that of 1221 Amor",
            "orbit_class_range": "1.017 AU < q (perihelion) < 1.3 AU"
        }
    },
    "is_sentry_object": false
}